{"type": "FeatureCollection", "features": [{"type": "Feature", "properties": {"seamark_type": "harbour", "name": "Marina Smir", "osm_id": 31441026}, "geometry": {"type": "Polygon", "coordinates": [[[-5.3431131, 35.7559244], [-5.3417587, 35.7564008], [-5.3405486, 35.7564565], [-5.3391152, 35.7553351], [-5.3389295, 35.7549424], [-5.338832, 35.7547361], [-5.3384229, 35.7523737], [-5.3404391, 35.7521499], [-5.3424061, 35.7513549], [-5.3424944, 35.7546332], [-5.3431131, 35.7559244]]]}}, {"type": "Feature", "properties": {"seamark_type": "harbour", "name": "Marina Bay", "osm_id": 31513490}, "geometry": {"type": "Polygon", "coordinates": [[[-5.3564589, 36.1502785], [-5.3564528, 36.1501449], [-5.3565071, 36.1501419], [-5.3565143, 36.1502759], [-5.3578359, 36.1502283], [-5.3583465, 36.1492019], [-5.3583715, 36.1491183], [-5.3578587, 36.1490157], [-5.3571709, 36.1488781], [-5.3567353, 36.1487909], [-5.355784, 36.1479826], [-5.3557748, 36.1479748], [-5.3557657, 36.147967], [-5.3542967, 36.1467188], [-5.3542447, 36.1467814], [-5.3542335, 36.1467949], [-5.3542223, 36.1468083], [-5.3541148, 36.1469376], [-5.3540882, 36.1469696], [-5.3535205, 36.1476526], [-5.3535791, 36.1477004], [-5.3535958, 36.1476856], [-5.3536136, 36.1476809], [-5.3536316, 36.1476839], [-5.3536573, 36.1477006], [-5.3538993, 36.1478848], [-5.3543189, 36.1482121], [-5.3544757, 36.1483347], [-5.3545353, 36.1483493], [-5.3545021, 36.1484473], [-5.3538143, 36.1482998], [-5.3532239, 36.1481737], [-5.3532176, 36.1479914], [-5.3532246, 36.147936], [-5.3532382, 36.1478878], [-5.3532628, 36.1478362], [-5.3532636, 36.1478196], [-5.3532527, 36.1478092], [-5.3532206, 36.1478071], [-5.3531958, 36.1478019], [-5.3531719, 36.1477912], [-5.3531512, 36.1477736], [-5.3531231, 36.1477412], [-5.3530869, 36.1477052], [-5.3530619, 36.1476961], [-5.3530434, 36.1476932], [-5.3530054, 36.1476905], [-5.3529259, 36.1480853], [-5.3531013, 36.1495432], [-5.3531114, 36.149627], [-5.3530901, 36.1496302], [-5.3531305, 36.1500708], [-5.3531451, 36.1502452], [-5.3531633, 36.1503348], [-5.353174, 36.1503582], [-5.3531893, 36.1503711], [-5.3532172, 36.1503814], [-5.3532474, 36.1503849], [-5.35454, 36.1503373], [-5.3545968, 36.1503248], [-5.3546615, 36.1502919], [-5.3547462, 36.1502482], [-5.3547952, 36.150231], [-5.354855, 36.1502228], [-5.3549344, 36.1502279], [-5.3550188, 36.1502532], [-5.3550801, 36.1502899], [-5.3551057, 36.1503068], [-5.3551413, 36.150321], [-5.3551926, 36.1503253], [-5.3556263, 36.1503132], [-5.3556428, 36.1502992], [-5.3558843, 36.1502761], [-5.3560667, 36.1502817], [-5.3561527, 36.1502875], [-5.3564589, 36.1502785]]]}}, {"type": "Feature", "properties": {"seamark_type": "harbour", "name": "Port Kabila", "osm_id": 145045234}, "geometry": {"type": "Polygon", "coordinates": [[[-5.3375818, 35.7195897], [-5.3376037, 35.7196222], [-5.3367215, 35.7197616], [-5.3367848, 35.7200766], [-5.3355783, 35.7202603], [-5.3354099, 35.7206837], [-5.3353929, 35.7207264], [-5.3337129, 35.7204937], [-5.3335733, 35.7198694], [-5.3335761, 35.7197116], [-5.3336357, 35.7195055], [-5.3337694, 35.7193204], [-5.3343979, 35.7188008], [-5.3346662, 35.7186602], [-5.3349024, 35.7185835], [-5.3355461, 35.7184884], [-5.3356414, 35.7185218], [-5.3357584, 35.7185019], [-5.3356851, 35.7182234], [-5.336593, 35.7180711], [-5.3366281, 35.7181731], [-5.3366075, 35.7182096], [-5.3365915, 35.7182474], [-5.3365972, 35.7183101], [-5.3366276, 35.7183627], [-5.3366584, 35.7183965], [-5.3367466, 35.7184381], [-5.3368312, 35.7184943], [-5.3371396, 35.7189882], [-5.3372112, 35.7190544], [-5.3375818, 35.7195897]]]}}, {"type": "Feature", "properties": {"seamark_type": "anchorage", "name": null, "osm_id": 180551669}, "geometry": {"type": "Polygon", "coordinates": [[[-5.5694144, 35.8660113], [-5.5697848, 35.864891], [-5.5703896, 35.8638399], [-5.5712105, 35.8628898], [-5.5722225, 35.8620696], [-5.5733948, 35.8614044], [-5.5746919, 35.8609142], [-5.5760743, 35.860614], [-5.5775, 35.8605129], [-5.5789257, 35.860614], [-5.5803081, 35.8609142], [-5.5816052, 35.8614044], [-5.5827775, 35.8620696], [-5.5837895, 35.8628898], [-5.5846104, 35.8638399], [-5.5852152, 35.864891], [-5.5855856, 35.8660113], [-5.5857104, 35.8671667], [-5.5855856, 35.868322], [-5.5852152, 35.8694423], [-5.5846104, 35.8704933], [-5.5837895, 35.8714433], [-5.5827775, 35.8722634], [-5.5816052, 35.8729286], [-5.5803081, 35.8734187], [-5.5789257, 35.8737188], [-5.5775, 35.8738199], [-5.5760743, 35.8737188], [-5.5746919, 35.8734187], [-5.5733948, 35.8729286], [-5.5722225, 35.8722634], [-5.5712105, 35.8714433], [-5.5703896, 35.8704933], [-5.5697848, 35.8694423], [-5.5694144, 35.868322], [-5.5692896, 35.8671667], [-5.5694144, 35.8660113]]]}}, {"type": "Feature", "properties": {"seamark_type": "anchorage", "name": null, "osm_id": 180551670}, "geometry": {"type": "Polygon", "coordinates": [[[-5.550081, 35.8660113], [-5.5504515, 35.864891], [-5.5510563, 35.8638399], [-5.5518772, 35.8628898], [-5.5528892, 35.8620696], [-5.5540615, 35.8614044], [-5.5553586, 35.8609142], [-5.556741, 35.860614], [-5.5581667, 35.8605129], [-5.5595924, 35.860614], [-5.5609748, 35.8609142], [-5.5622719, 35.8614044], [-5.5634442, 35.8620696], [-5.5644562, 35.8628898], [-5.5652771, 35.8638399], [-5.5658819, 35.864891], [-5.5662523, 35.8660113], [-5.566377, 35.8671667], [-5.5662523, 35.868322], [-5.5658819, 35.8694423], [-5.5652771, 35.8704933], [-5.5644562, 35.8714433], [-5.5634442, 35.8722634], [-5.5622719, 35.8729286], [-5.5609748, 35.8734187], [-5.5595924, 35.8737188], [-5.5581667, 35.8738199], [-5.556741, 35.8737188], [-5.5553586, 35.8734187], [-5.5540615, 35.8729286], [-5.5528892, 35.8722634], [-5.5518772, 35.8714433], [-5.5510563, 35.8704933], [-5.5504515, 35.8694423], [-5.550081, 35.868322], [-5.5499563, 35.8671667], [-5.550081, 35.8660113]]]}}, {"type": "Feature", "properties": {"seamark_type": "anchorage", "name": null, "osm_id": 180551672}, "geometry": {"type": "Polygon", "coordinates": [[[-5.6642477, 35.8496778], [-5.6646181, 35.8485573], [-5.665223, 35.8475059], [-5.6660438, 35.8465556], [-5.6670558, 35.8457353], [-5.6682282, 35.8450699], [-5.6695252, 35.8445796], [-5.6709076, 35.8442793], [-5.6723333, 35.8441782], [-5.6737591, 35.8442793], [-5.6751415, 35.8445796], [-5.6764385, 35.8450699], [-5.6776109, 35.8457353], [-5.6786228, 35.8465556], [-5.6794437, 35.8475059], [-5.6800486, 35.8485573], [-5.680419, 35.8496778], [-5.6805437, 35.8508334], [-5.680419, 35.851989], [-5.6800486, 35.8531094], [-5.6794437, 35.8541607], [-5.6786228, 35.8551109], [-5.6776109, 35.8559311], [-5.6764385, 35.8565965], [-5.6751415, 35.8570867], [-5.6737591, 35.8573869], [-5.6723333, 35.857488], [-5.6709076, 35.8573869], [-5.6695252, 35.8570867], [-5.6682282, 35.8565965], [-5.6670558, 35.8559311], [-5.6660438, 35.8551109], [-5.665223, 35.8541607], [-5.6646181, 35.8531094], [-5.6642477, 35.851989], [-5.664123, 35.8508334], [-5.6642477, 35.8496778]]]}}, {"type": "Feature", "properties": {"seamark_type": "harbour", "name": "Marína Hércules", "osm_id": 363349676}, "geometry": {"type": "Polygon", "coordinates": [[[-5.3159304, 35.8905071], [-5.3157265, 35.8904734], [-5.3156514, 35.890456], [-5.3150935, 35.8902257], [-5.315064, 35.8902039], [-5.3150526, 35.890172], [-5.3150748, 35.8901301], [-5.3151619, 35.8901192], [-5.3152558, 35.8901279], [-5.3153028, 35.8901985], [-5.3156716, 35.8902588], [-5.3157017, 35.8902458], [-5.3157346, 35.8901409], [-5.3157534, 35.8901366], [-5.3159317, 35.8901648], [-5.3159498, 35.8901572], [-5.3159552, 35.8901219], [-5.3159478, 35.8901135], [-5.3157715, 35.8900889], [-5.3157594, 35.8900808], [-5.3157695, 35.890016], [-5.3157872, 35.8900114], [-5.3161138, 35.8899726], [-5.3162254, 35.8895575], [-5.3162174, 35.8895322], [-5.3162057, 35.8895175], [-5.3159553, 35.8894787], [-5.3157044, 35.8894347], [-5.3153798, 35.8893803], [-5.3150546, 35.889325], [-5.3146477, 35.8892619], [-5.3142801, 35.8892], [-5.3137994, 35.8891239], [-5.3135405, 35.8890914], [-5.3134279, 35.8891305], [-5.3132643, 35.8892228], [-5.3131865, 35.889351], [-5.3131168, 35.8900486], [-5.3131476, 35.8900855], [-5.3146812, 35.8906412], [-5.3147046, 35.8906304], [-5.3147288, 35.8905788], [-5.3147784, 35.8905723], [-5.3151485, 35.8907081], [-5.3152062, 35.8907515], [-5.315221, 35.8908178], [-5.3159304, 35.8905071]]]}}, {"type": "Feature", "properties": {"seamark_type": "harbour", "name": "Queensway Quay Marina", "osm_id": 428278668}, "geometry": {"type": "Polygon", "coordinates": [[[-5.3569725, 36.1359349], [-5.3571272, 36.1357794], [-5.3563345, 36.134113], [-5.3567721, 36.1339758], [-5.3566351, 36.1336533], [-5.355829, 36.1338995], [-5.3558228, 36.1339013], [-5.3545293, 36.1342685], [-5.3545397, 36.1342925], [-5.3547378, 36.1347709], [-5.3551315, 36.1357325], [-5.3553543, 36.136278], [-5.3566296, 36.1359311], [-5.3567547, 36.136227], [-5.3555916, 36.1365427], [-5.355598, 36.1365622], [-5.355594, 36.1365806], [-5.3555839, 36.136593], [-5.3555651, 36.1366087], [-5.355539, 36.1366169], [-5.3555068, 36.1366234], [-5.3556766, 36.1370501], [-5.3559601, 36.1369693], [-5.3560079, 36.1369571], [-5.3560188, 36.1369787], [-5.3561593, 36.1373048], [-5.3562718, 36.1375752], [-5.3563664, 36.1377913], [-5.3564547, 36.1379875], [-5.3565387, 36.1381841], [-5.3566218, 36.138381], [-5.356699, 36.1385588], [-5.3567562, 36.1386937], [-5.3573523, 36.138517], [-5.3574473, 36.1384887], [-5.3576739, 36.1384214], [-5.3576271, 36.1383213], [-5.3575967, 36.1382507], [-5.3576312, 36.1382392], [-5.3575803, 36.1381291], [-5.3574571, 36.1381643], [-5.3569855, 36.1371106], [-5.3568415, 36.136789], [-5.3568244, 36.1367423], [-5.3569087, 36.1365992], [-5.3569966, 36.136574], [-5.3570103, 36.1365831], [-5.3570511, 36.1366655], [-5.3574013, 36.1365646], [-5.357434, 36.1365551], [-5.357462, 36.1365533], [-5.3574831, 36.136558], [-5.3574982, 36.136574], [-5.3575029, 36.1365834], [-5.3576804, 36.1365353], [-5.3573972, 36.1362462], [-5.3573686, 36.1362408], [-5.3573446, 36.13622], [-5.3573114, 36.1361275], [-5.3572969, 36.1360513], [-5.3572853, 36.136033], [-5.3572584, 36.1360226], [-5.357092, 36.1360345], [-5.3570587, 36.1360324], [-5.3570403, 36.136018], [-5.3570579, 36.1359898], [-5.3569725, 36.1359349]]]}}, {"type": "Feature", "properties": {"seamark_type": "harbour", "name": "Puerto Deportivo Algeciras-Saladillo", "osm_id": 449757979}, "geometry": {"type": "Polygon", "coordinates": [[[-5.437823, 36.1190687], [-5.4370404, 36.1190936], [-5.4370186, 36.1213788], [-5.437092, 36.1213409], [-5.4371641, 36.1213258], [-5.4376435, 36.121323], [-5.4380593, 36.1213205], [-5.4384305, 36.1213186], [-5.438765, 36.121317], [-5.4391187, 36.1213159], [-5.439475, 36.1213121], [-5.4398312, 36.1213103], [-5.4414047, 36.121287], [-5.4414041, 36.1212379], [-5.4415352, 36.1210107], [-5.441518, 36.1207336], [-5.4415049, 36.120444], [-5.4414908, 36.1202289], [-5.4414868, 36.1200482], [-5.4414677, 36.1192845], [-5.4414184, 36.1184062], [-5.4411411, 36.11832], [-5.4408436, 36.1182156], [-5.4404618, 36.1180792], [-5.4400892, 36.1179575], [-5.4397017, 36.1178309], [-5.4393, 36.1176829], [-5.4391318, 36.1176337], [-5.4387617, 36.117647], [-5.4380701, 36.1176688], [-5.4381199, 36.1189635], [-5.4382924, 36.1189568], [-5.4382986, 36.1190583], [-5.4380316, 36.119063], [-5.437823, 36.1190687]]]}}, {"type": "Feature", "properties": {"seamark_type": "harbour", "name": "Puerto Deportivo de la Duquesa", "osm_id": 449757980}, "geometry": {"type": "Polygon", "coordinates": [[[-5.2309553, 36.3567271], [-5.2315156, 36.3556455], [-5.2311848, 36.3555467], [-5.230729, 36.3553778], [-5.23019, 36.3552023], [-5.2295334, 36.3549701], [-5.2287811, 36.3547119], [-5.2286768, 36.354658], [-5.2286369, 36.3546205], [-5.2286293, 36.3545946], [-5.2286372, 36.3545674], [-5.2287711, 36.3544853], [-5.2280957, 36.3542135], [-5.2280512, 36.3542877], [-5.2276239, 36.3551426], [-5.2276272, 36.3553358], [-5.2277355, 36.3555126], [-5.2279243, 36.3556216], [-5.2280063, 36.3557183], [-5.2292608, 36.3561439], [-5.22929, 36.3561541], [-5.2293512, 36.3561744], [-5.22956, 36.3562512], [-5.2309553, 36.3567271]]]}}, {"type": "Feature", "properties": {"seamark_type": "harbour", "name": "Alcaidesa Marina", "osm_id": 449757981}, "geometry": {"type": "Polygon", "coordinates": [[[-5.3612927, 36.1591292], [-5.3606604, 36.1578975], [-5.3599783, 36.1581453], [-5.359614, 36.1582726], [-5.3582688, 36.1558939], [-5.3578784, 36.1560409], [-5.3574797, 36.1561924], [-5.3567487, 36.1564598], [-5.3563129, 36.1566254], [-5.3552789, 36.1570142], [-5.3548817, 36.1571535], [-5.3544905, 36.1564582], [-5.3544251, 36.1564821], [-5.353278, 36.1569013], [-5.3533807, 36.1570889], [-5.3533066, 36.1571136], [-5.354334, 36.1589256], [-5.354542, 36.1588481], [-5.3550602, 36.1597776], [-5.3561341, 36.1593762], [-5.3562746, 36.1596359], [-5.3562946, 36.1596725], [-5.3565503, 36.1595775], [-5.3566611, 36.1595363], [-5.3566739, 36.1595598], [-5.3569544, 36.1600685], [-5.3559482, 36.1604379], [-5.3561615, 36.1606988], [-5.3565775, 36.1612077], [-5.3608653, 36.1596308], [-5.3607648, 36.1594398], [-5.360865, 36.1593708], [-5.3608727, 36.1592982], [-5.3612927, 36.1591292]]]}}, {"type": "Feature", "properties": {"seamark_type": "harbour", "name": "Puerto Deportivo", "osm_id": 449757982}, "geometry": {"type": "Polygon", "coordinates": [[[-5.1557313, 36.4163213], [-5.1557825, 36.4163126], [-5.155841, 36.416306], [-5.1562381, 36.4162623], [-5.1563366, 36.4162519], [-5.1567584, 36.4161567], [-5.1573664, 36.4156117], [-5.1577315, 36.4158914], [-5.1581817, 36.4154935], [-5.1585366, 36.4151797], [-5.1582906, 36.4150026], [-5.1583037, 36.4149902], [-5.1585307, 36.4147865], [-5.1585395, 36.4147772], [-5.1585772, 36.4148055], [-5.1586181, 36.4147686], [-5.1587158, 36.414841], [-5.1587668, 36.4147983], [-5.158672, 36.414723], [-5.1589613, 36.4144657], [-5.1595788, 36.4149173], [-5.1603487, 36.4142255], [-5.1600075, 36.4136649], [-5.1598466, 36.413412], [-5.1594642, 36.4133353], [-5.1594472, 36.413424], [-5.1587252, 36.413284], [-5.1580836, 36.413162], [-5.1580427, 36.4131542], [-5.1580549, 36.413077], [-5.1579152, 36.4130775], [-5.1578272, 36.4130471], [-5.1577639, 36.4129838], [-5.1569161, 36.4128212], [-5.1566952, 36.4134181], [-5.1567181, 36.4135044], [-5.1567457, 36.4135243], [-5.1567754, 36.413576], [-5.1567646, 36.4136567], [-5.156729, 36.41371], [-5.1566598, 36.4137304], [-5.1566206, 36.4137211], [-5.1565813, 36.4137328], [-5.156478, 36.4136789], [-5.1555482, 36.4148188], [-5.15543, 36.414992], [-5.1550518, 36.4154191], [-5.1552141, 36.4162379], [-5.1557042, 36.4161823], [-5.1557313, 36.4163213]]]}}, {"type": "Feature", "properties": {"seamark_type": "harbour", "name": "Puerto Deportivo José Banus", "osm_id": 449757983}, "geometry": {"type": "Polygon", "coordinates": [[[-4.9532478, 36.4841613], [-4.9528922, 36.4839758], [-4.9523988, 36.4837183], [-4.9501425, 36.48648], [-4.9494613, 36.4872727], [-4.9495725, 36.487329], [-4.949508, 36.4874073], [-4.9494528, 36.4873819], [-4.9493279, 36.4875342], [-4.9492249, 36.4880693], [-4.949452, 36.4880898], [-4.9499467, 36.488504], [-4.9501211, 36.4886952], [-4.9504349, 36.4885043], [-4.9505829, 36.4886529], [-4.9511659, 36.4882699], [-4.9517099, 36.4879411], [-4.9522426, 36.4875873], [-4.9523669, 36.4874376], [-4.9529305, 36.487095], [-4.9528027, 36.4869601], [-4.9535109, 36.4865174], [-4.9539882, 36.486219], [-4.9544024, 36.4859601], [-4.9533702, 36.4843737], [-4.9532478, 36.4841613]]]}}, {"type": "Feature", "properties": {"seamark_type": "harbour", "name": "Puerto Cabopino", "osm_id": 473855124}, "geometry": {"type": "Polygon", "coordinates": [[[-4.7409003, 36.4847553], [-4.7410228, 36.4849984], [-4.7411756, 36.4854192], [-4.7410729, 36.485488], [-4.7408697, 36.4855752], [-4.7406542, 36.4857036], [-4.7407248, 36.4857873], [-4.7406097, 36.4860292], [-4.7405231, 36.4860796], [-4.7404693, 36.486014], [-4.7403312, 36.4860586], [-4.7402915, 36.4860061], [-4.7398209, 36.4857125], [-4.73969, 36.4855256], [-4.7395559, 36.48532], [-4.7394641, 36.485217], [-4.7394274, 36.4851758], [-4.739274, 36.4845848], [-4.739173, 36.4842956], [-4.7390991, 36.4840546], [-4.7389872, 36.4836272], [-4.7389472, 36.4834546], [-4.7389529, 36.4832822], [-4.7389821, 36.4831607], [-4.7390678, 36.4830389], [-4.739356, 36.482834], [-4.7397425, 36.482737], [-4.7404291, 36.4826197], [-4.7405836, 36.4826611], [-4.7405321, 36.4827991], [-4.7406146, 36.4834791], [-4.7401983, 36.483347], [-4.7399999, 36.4832514], [-4.7398861, 36.483224], [-4.739765, 36.4832514], [-4.7397486, 36.4832998], [-4.7397407, 36.4833455], [-4.7397241, 36.4833662], [-4.7396698, 36.4833751], [-4.7398294, 36.4833505], [-4.7399723, 36.4834459], [-4.740043, 36.4834931], [-4.7401168, 36.4837202], [-4.7403798, 36.4845302], [-4.7407834, 36.4847048], [-4.7409003, 36.4847553]]]}}, {"type": "Feature", "properties": {"seamark_type": "harbour", "name": "Mid Harbour Boat Owners' Marina", "osm_id": 554118855}, "geometry": {"type": "Polygon", "coordinates": [[[-5.3584192, 36.1381698], [-5.3596667, 36.1378056], [-5.3597592, 36.1380116], [-5.359865, 36.1382476], [-5.3599732, 36.1384887], [-5.3600842, 36.1387361], [-5.3603074, 36.1392334], [-5.3604382, 36.139525], [-5.3605699, 36.1398184], [-5.3606915, 36.1400894], [-5.3608123, 36.1403588], [-5.3609416, 36.1406469], [-5.3610667, 36.1409256], [-5.3603163, 36.141141], [-5.3603523, 36.1412125], [-5.3602182, 36.1412537], [-5.3599419, 36.1412754], [-5.3599071, 36.1411779], [-5.3598212, 36.1410284], [-5.3597166, 36.1409201], [-5.3596791, 36.140905], [-5.359612, 36.1408573], [-5.3593867, 36.1406255], [-5.3590331, 36.1403866], [-5.3590246, 36.1403808], [-5.3586164, 36.1404942], [-5.3583746, 36.1399667], [-5.3582928, 36.1398407], [-5.3581952, 36.1397488], [-5.3580692, 36.1396733], [-5.3579432, 36.1396405], [-5.3577293, 36.1391823], [-5.358536, 36.1389331], [-5.3582872, 36.1383308], [-5.3584458, 36.1382789], [-5.3584192, 36.1381698]]]}}, {"type": "Feature", "properties": {"seamark_type": "harbour", "name": "Marina Saidia مارينا", "osm_id": 611552930}, "geometry": {"type": "Polygon", "coordinates": [[[-2.2942388, 35.1104217], [-2.2934693, 35.1102781], [-2.2936187, 35.1098195], [-2.2927939, 35.1093943], [-2.2925536, 35.1092659], [-2.2925795, 35.1092335], [-2.2926279, 35.1091558], [-2.2926485, 35.1091311], [-2.2928537, 35.1088687], [-2.2928602, 35.1088583], [-2.2931493, 35.1085141], [-2.2931654, 35.1084943], [-2.2933808, 35.1082266], [-2.2933953, 35.1082089], [-2.2938453, 35.1076662], [-2.2948199, 35.1079729], [-2.2939871, 35.1089817], [-2.2956243, 35.1092485], [-2.2957238, 35.1088656], [-2.2960993, 35.1089319], [-2.2965087, 35.1090006], [-2.2970468, 35.1090921], [-2.2975902, 35.1091807], [-2.2981091, 35.1092679], [-2.2976697, 35.1109982], [-2.2971836, 35.1109165], [-2.2966714, 35.1108304], [-2.2962881, 35.110766], [-2.2959934, 35.1107165], [-2.2955878, 35.1106484], [-2.294978, 35.1105459], [-2.2949371, 35.110539], [-2.2942769, 35.1104281], [-2.2942388, 35.1104217]]]}}, {"type": "Feature", "properties": {"seamark_type": "harbour", "name": null, "osm_id": 704204793}, "geometry": {"type": "Polygon", "coordinates": [[[-5.9325963, 36.1844531], [-5.9326173, 36.184455], [-5.9328254, 36.1844741], [-5.9330839, 36.1826376], [-5.9331034, 36.1826394], [-5.9338366, 36.1827066], [-5.9338518, 36.182708], [-5.9335929, 36.184547], [-5.9340314, 36.1845872], [-5.9342113, 36.1833097], [-5.9342298, 36.1833113], [-5.9347997, 36.1833636], [-5.9352146, 36.1834017], [-5.9352846, 36.1834081], [-5.9352116, 36.1839267], [-5.9352561, 36.1839308], [-5.9352959, 36.1839344], [-5.9350597, 36.1856123], [-5.9350198, 36.1856086], [-5.9349747, 36.1856045], [-5.9348982, 36.186148], [-5.9348261, 36.1861414], [-5.9344023, 36.1861026], [-5.9338495, 36.1860519], [-5.9338203, 36.1860492], [-5.9338242, 36.1860216], [-5.9339265, 36.1852948], [-5.9339585, 36.1850677], [-5.9333087, 36.1850081], [-5.9333366, 36.1848098], [-5.9325562, 36.1847383], [-5.9325963, 36.1844531]]]}}, {"type": "Feature", "properties": {"seamark_type": "harbour", "name": null, "osm_id": 704204873}, "geometry": {"type": "Polygon", "coordinates": [[[-5.9268669, 36.185047], [-5.9283283, 36.1851303], [-5.928423, 36.1840965], [-5.9280505, 36.1840611], [-5.9277588, 36.1840377], [-5.9273959, 36.1840036], [-5.9270332, 36.1839692], [-5.9268669, 36.185047]]]}}, {"type": "Feature", "properties": {"seamark_type": "harbour", "name": "Puerto de Tarifa", "osm_id": 1347266811}, "geometry": {"type": "Polygon", "coordinates": [[[-5.6061359, 36.009587], [-5.6061617, 36.0095994], [-5.606175, 36.0096051], [-5.6061816, 36.0096071], [-5.6061847, 36.009607], [-5.6061925, 36.0096054], [-5.6062061, 36.0095925], [-5.6063024, 36.0094482], [-5.6065247, 36.0091104], [-5.606644, 36.0089249], [-5.6066456, 36.0089224], [-5.6066572, 36.0089037], [-5.60675, 36.0087575], [-5.6062717, 36.0085279], [-5.605664, 36.0082256], [-5.6054537, 36.0081201], [-5.6054117, 36.0081009], [-5.6053585, 36.0080835], [-5.6052788, 36.0080601], [-5.6052205, 36.0080486], [-5.6051332, 36.0080385], [-5.605033, 36.0080416], [-5.6049362, 36.0080487], [-5.6047159, 36.0080882], [-5.604558, 36.0081187], [-5.6042422, 36.0081804], [-5.6036219, 36.0083145], [-5.603614, 36.0082902], [-5.6035981, 36.0082411], [-5.6028267, 36.0083895], [-5.6028446, 36.0084493], [-5.6026828, 36.0084712], [-5.6025787, 36.0084846], [-5.6035239, 36.0065593], [-5.6035341, 36.0065252], [-5.6035273, 36.0064927], [-5.6034979, 36.0064746], [-5.6034734, 36.0064644], [-5.6034438, 36.0064602], [-5.6034026, 36.0064605], [-5.6033808, 36.0064702], [-5.6033509, 36.0064944], [-5.603337, 36.0065186], [-5.6033351, 36.006554], [-5.6030863, 36.0067223], [-5.6027044, 36.0069828], [-5.6024698, 36.0071413], [-5.6020958, 36.0073877], [-5.6017313, 36.0076326], [-5.6013383, 36.0078725], [-5.601264, 36.0079314], [-5.6011868, 36.0080066], [-5.6011518, 36.0080575], [-5.6011484, 36.0081076], [-5.6011713, 36.0081993], [-5.6015815, 36.0096498], [-5.6016858, 36.0100026], [-5.6016913, 36.0100216], [-5.6017127, 36.0100915], [-5.6016556, 36.0101072], [-5.6016089, 36.0101247], [-5.6013968, 36.0102892], [-5.6013547, 36.0103228], [-5.601264, 36.0103927], [-5.6010917, 36.0105363], [-5.6010573, 36.0105886], [-5.6010361, 36.010643], [-5.6010339, 36.0106867], [-5.601042, 36.0107209], [-5.6010528, 36.0107568], [-5.6011017, 36.0108695], [-5.6011119, 36.0108924], [-5.6011949, 36.0110796], [-5.6012113, 36.0111792], [-5.6012211, 36.0112764], [-5.6012333, 36.0114083], [-5.6012466, 36.0115455], [-5.6012845, 36.0115766], [-5.601338, 36.0115728], [-5.6013831, 36.0115686], [-5.6014756, 36.0115334], [-5.6016025, 36.0114766], [-5.6017982, 36.0113821], [-5.6019764, 36.0112961], [-5.602085, 36.01125], [-5.6021666, 36.0112378], [-5.6022227, 36.0112392], [-5.6022867, 36.0112475], [-5.6023669, 36.0112681], [-5.6024678, 36.0112855], [-5.6025311, 36.0112898], [-5.6025974, 36.0112882], [-5.6026351, 36.0112775], [-5.6027452, 36.011244], [-5.6027567, 36.0112647], [-5.6028049, 36.011247], [-5.6030971, 36.0111584], [-5.6033267, 36.0110947], [-5.6034201, 36.0110714], [-5.6034488, 36.0110669], [-5.6035811, 36.0110409], [-5.6036728, 36.0110246], [-5.6037732, 36.0110221], [-5.603879, 36.0110459], [-5.6039509, 36.0110822], [-5.6039799, 36.0111061], [-5.6040035, 36.0111451], [-5.6040292, 36.0111844], [-5.6040364, 36.0111977], [-5.6040697, 36.0112538], [-5.6040763, 36.0112669], [-5.6041034, 36.0113107], [-5.6041767, 36.0112811], [-5.6041916, 36.0112748], [-5.6042216, 36.0112629], [-5.6042906, 36.0112349], [-5.6043427, 36.0112143], [-5.6044013, 36.0111919], [-5.6044093, 36.0112044], [-5.6044298, 36.0112394], [-5.6045486, 36.0111838], [-5.6049978, 36.0109738], [-5.6053182, 36.0108203], [-5.6054409, 36.0107363], [-5.6055162, 36.0106224], [-5.6056131, 36.0104753], [-5.6056362, 36.010439], [-5.6056299, 36.0104363], [-5.6056525, 36.0104019], [-5.6056594, 36.0104042], [-5.6056859, 36.0103653], [-5.6056799, 36.0103628], [-5.6057037, 36.0103242], [-5.6057099, 36.0103262], [-5.6057347, 36.0102859], [-5.6057292, 36.0102838], [-5.6057519, 36.0102477], [-5.6057577, 36.0102503], [-5.6057821, 36.0102098], [-5.6057773, 36.0102074], [-5.6057943, 36.0101821], [-5.6058047, 36.0101664], [-5.6058322, 36.0101263], [-5.6058511, 36.010099], [-5.6058542, 36.0101002], [-5.6058753, 36.0100671], [-5.6058706, 36.0100645], [-5.6058864, 36.0100413], [-5.6058921, 36.0100431], [-5.605912, 36.0100099], [-5.605907, 36.0100074], [-5.6059252, 36.0099773], [-5.6059327, 36.0099798], [-5.6059565, 36.0099425], [-5.6059509, 36.0099396], [-5.6059546, 36.0099326], [-5.6059541, 36.0099257], [-5.6059503, 36.0099204], [-5.6059269, 36.0099101], [-5.6059863, 36.0098178], [-5.606009, 36.0097828], [-5.6060495, 36.0097203], [-5.6061359, 36.009587]]]}}, {"type": "Feature", "properties": {"seamark_type": "harbour", "name": "Puerto Deportivo de Puente Mayorga", "osm_id": 1348590209}, "geometry": {"type": "Polygon", "coordinates": [[[-5.3885837, 36.1806357], [-5.3885448, 36.1806092], [-5.3885202, 36.1805924], [-5.388511, 36.1805861], [-5.3886116, 36.1801791], [-5.3886098, 36.180068], [-5.3886487, 36.1799072], [-5.3881216, 36.1798475], [-5.3882396, 36.1791989], [-5.3881962, 36.1792134], [-5.3881626, 36.1792133], [-5.3881304, 36.1792046], [-5.3881073, 36.1791862], [-5.3881031, 36.1791619], [-5.3881083, 36.1791473], [-5.3881415, 36.1791213], [-5.3881729, 36.1791002], [-5.388215, 36.1790835], [-5.3882572, 36.1790683], [-5.3882993, 36.1790575], [-5.388834, 36.1789937], [-5.3888805, 36.1789895], [-5.3889114, 36.1789925], [-5.388943, 36.1790102], [-5.3889674, 36.1790412], [-5.3889772, 36.1790718], [-5.3889806, 36.1791103], [-5.3889656, 36.1791832], [-5.3889239, 36.1793466], [-5.3889163, 36.1793756], [-5.3888584, 36.1795968], [-5.3887726, 36.1799246], [-5.388734, 36.1800721], [-5.388673, 36.180305], [-5.3886426, 36.1804177], [-5.3885837, 36.1806357]]]}}, {"type": "Feature", "properties": {"seamark_type": "harbour", "name": "Puerto Pesquero de La Atunara", "osm_id": 1367194599}, "geometry": {"type": "Polygon", "coordinates": [[[-5.3352798, 36.1825696], [-5.3352718, 36.1825999], [-5.334424, 36.1824645], [-5.3343635, 36.1823382], [-5.3342583, 36.1821721], [-5.3341401, 36.1820648], [-5.3338095, 36.1818156], [-5.333072, 36.1812321], [-5.3329013, 36.1812006], [-5.3318841, 36.18036], [-5.3317513, 36.1801939], [-5.3316591, 36.1799979], [-5.3316286, 36.179827], [-5.3316628, 36.1791032], [-5.3317203, 36.178952], [-5.3318074, 36.1788878], [-5.3319383, 36.1788649], [-5.3320481, 36.1788889], [-5.3321207, 36.1789636], [-5.3321604, 36.1790547], [-5.3334282, 36.1795614], [-5.3339866, 36.1794345], [-5.3340393, 36.179438], [-5.3340723, 36.1794793], [-5.3342814, 36.1794365], [-5.3340728, 36.1792687], [-5.3340772, 36.179233], [-5.3341132, 36.1792052], [-5.3341683, 36.17919], [-5.3344356, 36.1793571], [-5.3347814, 36.1792413], [-5.3348319, 36.1793588], [-5.335304, 36.179246], [-5.3353549, 36.1788888], [-5.3358331, 36.1787692], [-5.3357922, 36.1790267], [-5.3359384, 36.1790382], [-5.3359463, 36.1790952], [-5.3359995, 36.1790826], [-5.3360591, 36.1792475], [-5.3360665, 36.1792951], [-5.3359769, 36.1793141], [-5.335978, 36.1793465], [-5.3359705, 36.1793598], [-5.3359595, 36.1793793], [-5.3359165, 36.179449], [-5.3359525, 36.1794611], [-5.3359776, 36.179465], [-5.3360284, 36.1794947], [-5.3360523, 36.1795161], [-5.3360925, 36.1795522], [-5.3361255, 36.1796093], [-5.3361361, 36.1796579], [-5.3361338, 36.1796998], [-5.3360197, 36.1800879], [-5.3360064, 36.1801331], [-5.3359091, 36.1804632], [-5.3358236, 36.1807538], [-5.3357648, 36.1809532], [-5.3356453, 36.181359], [-5.3356076, 36.1814871], [-5.3355178, 36.1817809], [-5.3354168, 36.1821113], [-5.3353889, 36.1822027], [-5.3353448, 36.1823509], [-5.3352798, 36.1825696]]]}}, {"type": "Feature", "properties": {"seamark_type": "harbour", "name": null, "osm_id": 1546645901}, "geometry": {"type": "Polygon", "coordinates": [[[-5.3187984, 35.8924687], [-5.3192158, 35.892095], [-5.3186541, 35.8918026], [-5.318334, 35.8916984], [-5.3181112, 35.8919755], [-5.3187984, 35.8924687]]]}}, {"type": "Feature", "properties": {"seamark_type": "harbour", "name": null, "osm_id": 1546646665}, "geometry": {"type": "Polygon", "coordinates": [[[-5.3031912, 35.8929393], [-5.3025593, 35.8928769], [-5.3020585, 35.8933762], [-5.3019814, 35.8938819], [-5.3026595, 35.8938382], [-5.3029369, 35.8937695], [-5.3030679, 35.8935698], [-5.3031912, 35.8929393]]]}}]}